{"type": "FeatureCollection", "features": [ {"type": "Feature", "properties": {"norad_id": 33492, "name": "GOSAT (IBUKI)", "group": "resource", "lat": 63.37111622160521, "lon": 92.80905090405729, "alt_km": 662.1476282821959, "timestamp": "2025-12-26T20:30:45.590514+00:00", "meta": {"OBJECT_NAME": "GOSAT (IBUKI)", "OBJECT_ID": "2009-002A", "EPOCH": "2025-12-26T07:07:43.621824", "MEAN_MOTION": 14.67550857, "ECCENTRICITY": 0.00010366, "INCLINATION": 98.0771, "RA_OF_ASC_NODE": 108.7121, "ARG_OF_PERICENTER": 105.7066, "MEAN_ANOMALY": 254.4253, "EPHEMERIS_TYPE": 0, "CLASSIFICATION_TYPE": "U", "NORAD_CAT_ID": 33492, "ELEMENT_SET_NO": 999, "REV_AT_EPOCH": 90610, "BSTAR": 0.00017141999, "MEAN_MOTION_DOT": 9.24e-06, "MEAN_MOTION_DDOT": 0}, "tle": {"line1": "1 33492U 09002A   25360.29703266  .00000924  00000+0  17142-3 0  9995", "line2": "2 33492  98.0771 108.7121 0001036 105.7066 254.4253 14.67550857906109"}}, "geometry": {"type": "Point", "coordinates": [92.80905090405729, 63.37111622160521]}}, {"type": "Feature", "properties": {"norad_id": 35681, "name": "DEIMOS-1", "group": "resource", "lat": 21.23391989373806, "lon": -16.178779240031375, "alt_km": 645.4393304328651, "timestamp": "2025-12-26T20:30:45.590523+00:00", "meta": {"OBJECT_NAME": "DEIMOS-1", "OBJECT_ID": "2009-041A", "EPOCH": "2025-12-26T14:54:44.637408", "MEAN_MOTION": 14.74974416, "ECCENTRICITY": 0.00023944, "INCLINATION": 97.7158, "RA_OF_ASC_NODE": 160.5791, "ARG_OF_PERICENTER": 58.6265, "MEAN_ANOMALY": 301.5179, "EPHEMERIS_TYPE": 0, "CLASSIFICATION_TYPE": "U", "NORAD_CAT_ID": 35681, "ELEMENT_SET_NO": 999, "REV_AT_EPOCH": 88144, "BSTAR": 0.00016841974, "MEAN_MOTION_DOT": 1.085e-05, "MEAN_MOTION_DDOT": 0}, "tle": {"line1": "1 35681U 09041A   25360.62134997  .00001085  00000+0  16842-3 0  9991", "line2": "2 35681  97.7158 160.5791 0002394  58.6265 301.5179 14.74974416881449"}}, "geometry": {"type": "Point", "coordinates": [-16.178779240031375, 21.23391989373806]}}, {"type": "Feature", "properties": {"norad_id": 35682, "name": "DUBAISAT-1", "group": "resource", "lat": 74.2137712265681, "lon": 101.57957498264614, "alt_km": 645.6501056969428, "timestamp": "2025-12-26T20:30:45.590532+00:00", "meta": {"OBJECT_NAME": "DUBAISAT-1", "OBJECT_ID": "2009-041B", "EPOCH": "2025-12-26T15:16:54.705792", "MEAN_MOTION": 14.74642191, "ECCENTRICITY": 0.0009257, "INCLINATION": 97.9799, "RA_OF_ASC_NODE": 131.1127, "ARG_OF_PERICENTER": 264.3825, "MEAN_ANOMALY": 95.6328, "EPHEMERIS_TYPE": 0, "CLASSIFICATION_TYPE": "U", "NORAD_CAT_ID": 35682, "ELEMENT_SET_NO": 999, "REV_AT_EPOCH": 87966, "BSTAR": 0.00022737118, "MEAN_MOTION_DOT": 1.467e-05, "MEAN_MOTION_DDOT": 0}, "tle": {"line1": "1 35682U 09041B   25360.63674428  .00001467  00000+0  22737-3 0  9995", "line2": "2 35682  97.9799 131.1127 0009257 264.3825  95.6328 14.74642191879663"}}, "geometry": {"type": "Point", "coordinates": [101.57957498264614, 74.2137712265681]}}, {"type": "Feature", "properties": {"norad_id": 35931, "name": "OCEANSAT-2", "group": "resource", "lat": 47.69911402031273, "lon": -9.119431685747733, "alt_km": 882.0378676100672, "timestamp": "2025-12-26T20:30:45.590542+00:00", "meta": {"OBJECT_NAME": "OCEANSAT-2", "OBJECT_ID": "2009-051A", "EPOCH": "2025-12-26T15:08:09.506112", "MEAN_MOTION": 13.99623047, "ECCENTRICITY": 0.00158681, "INCLINATION": 98.2218, "RA_OF_ASC_NODE": 359.8216, "ARG_OF_PERICENTER": 8.5035, "MEAN_ANOMALY": 351.6398, "EPHEMERIS_TYPE": 0, "CLASSIFICATION_TYPE": "U", "NORAD_CAT_ID": 35931, "ELEMENT_SET_NO": 999, "REV_AT_EPOCH": 85519, "BSTAR": 4.2170441e-05, "MEAN_MOTION_DOT": 2.4e-07, "MEAN_MOTION_DDOT": 0}, "tle": {"line1": "1 35931U 09051A   25360.63066558  .00000024  00000+0  42170-4 0  9994", "line2": "2 35931  98.2218 359.8216 0015868   8.5035 351.6398 13.99623047855193"}}, "geometry": {"type": "Point", "coordinates": [-9.119431685747733, 47.69911402031273]}}, {"type": "Feature", "properties": {"norad_id": 35946, "name": "WORLDVIEW-2 (WV-2)", "group": "resource", "lat": -55.688785175585785, "lon": 84.36845107592906, "alt_km": 773.1510408714676, "timestamp": "2025-12-26T20:30:45.590551+00:00", "meta": {"OBJECT_NAME": "WORLDVIEW-2 (WV-2)", "OBJECT_ID": "2009-055A", "EPOCH": "2025-12-26T14:05:40.112448", "MEAN_MOTION": 14.37730173, "ECCENTRICITY": 0.0004639, "INCLINATION": 98.4771, "RA_OF_ASC_NODE": 71.4816, "ARG_OF_PERICENTER": 36.2574, "MEAN_ANOMALY": 323.8927, "EPHEMERIS_TYPE": 0, "CLASSIFICATION_TYPE": "U", "NORAD_CAT_ID": 35946, "ELEMENT_SET_NO": 999, "REV_AT_EPOCH": 85084, "BSTAR": 7.7865456e-05, "MEAN_MOTION_DOT": 1.91e-06, "MEAN_MOTION_DDOT": 0}, "tle": {"line1": "1 35946U 09055A   25360.58726982  .00000191  00000+0  77865-4 0  9996", "line2": "2 35946  98.4771  71.4816 0004639  36.2574 323.8927 14.37730173850846"}}, "geometry": {"type": "Point", "coordinates": [84.36845107592906, -55.688785175585785]}}, {"type": "Feature", "properties": {"norad_id": 36036, "name": "SMOS", "group": "resource", "lat": 77.98986494879475, "lon": 141.4456403100673, "alt_km": 751.2552270493361, "timestamp": "2025-12-26T20:30:45.590561+00:00", "meta": {"OBJECT_NAME": "SMOS", "OBJECT_ID": "2009-059A", "EPOCH": "2025-12-26T11:47:46.851936", "MEAN_MOTION": 14.39753392, "ECCENTRICITY": 0.00010404, "INCLINATION": 98.4382, "RA_OF_ASC_NODE": 185.3364, "ARG_OF_PERICENTER": 83.5124, "MEAN_ANOMALY": 276.6183, "EPHEMERIS_TYPE": 0, "CLASSIFICATION_TYPE": "U", "NORAD_CAT_ID": 36036, "ELEMENT_SET_NO": 999, "REV_AT_EPOCH": 84860, "BSTAR": 0.00014539134, "MEAN_MOTION_DOT": 4.12e-06, "MEAN_MOTION_DDOT": 0}, "tle": {"line1": "1 36036U 09059A   25360.49151449  .00000412  00000+0  14539-3 0  9995", "line2": "2 36036  98.4382 185.3364 0001040  83.5124 276.6183 14.39753392848607"}}, "geometry": {"type": "Point", "coordinates": [141.4456403100673, 77.98986494879475]}}, {"type": "Feature", "properties": {"norad_id": 36110, "name": "YAOGAN-7", "group": "resource", "lat": 33.53685316146698, "lon": -122.80771502666994, "alt_km": 649.9197187213313, "timestamp": "2025-12-26T20:30:45.590570+00:00", "meta": {"OBJECT_NAME": "YAOGAN-7", "OBJECT_ID": "2009-069A", "EPOCH": "2025-12-26T13:51:31.752576", "MEAN_MOTION": 14.77752381, "ECCENTRICITY": 0.00235103, "INCLINATION": 98.0293, "RA_OF_ASC_NODE": 242.2846, "ARG_OF_PERICENTER": 234.1496, "MEAN_ANOMALY": 125.7531, "EPHEMERIS_TYPE": 0, "CLASSIFICATION_TYPE": "U", "NORAD_CAT_ID": 36110, "ELEMENT_SET_NO": 999, "REV_AT_EPOCH": 86413, "BSTAR": 0.00010310684, "MEAN_MOTION_DOT": 6.89e-06, "MEAN_MOTION_DDOT": 0}, "tle": {"line1": "1 36110U 09069A   25360.57745084  .00000689  00000+0  10311-3 0  9992", "line2": "2 36110  98.0293 242.2846 0023510 234.1496 125.7531 14.77752381864133"}}, "geometry": {"type": "Point", "coordinates": [-122.80771502666994, 33.53685316146698]}}, {"type": "Feature", "properties": {"norad_id": 36605, "name": "TANDEM-X", "group": "resource", "lat": -39.76199149124954, "lon": 179.7818050980195, "alt_km": 515.7211083415814, "timestamp": "2025-12-26T20:30:45.590579+00:00", "meta": {"OBJECT_NAME": "TANDEM-X", "OBJECT_ID": "2010-030A", "EPOCH": "2025-12-26T13:13:25.253472", "MEAN_MOTION": 15.1915819, "ECCENTRICITY": 0.00017763, "INCLINATION": 97.4455, "RA_OF_ASC_NODE": 5.7293, "ARG_OF_PERICENTER": 92.0278, "MEAN_ANOMALY": 268.116, "EPHEMERIS_TYPE": 0, "CLASSIFICATION_TYPE": "U", "NORAD_CAT_ID": 36605, "ELEMENT_SET_NO": 999, "REV_AT_EPOCH": 86043, "BSTAR": 6.7415349e-05, "MEAN_MOTION_DOT": 1.349e-05, "MEAN_MOTION_DDOT": 0}, "tle": {"line1": "1 36605U 10030A   25360.55098673  .00001349  00000+0  67415-4 0  9996", "line2": "2 36605  97.4455   5.7293 0001776  92.0278 268.1160 15.19158190860436"}}, "geometry": {"type": "Point", "coordinates": [179.7818050980195, -39.76199149124954]}}, {"type": "Feature", "properties": {"norad_id": 36795, "name": "CARTOSAT-2B", "group": "resource", "lat": 11.12162033417933, "lon": 47.88389558916172, "alt_km": 626.685737202677, "timestamp": "2025-12-26T20:30:45.590588+00:00", "meta": {"OBJECT_NAME": "CARTOSAT-2B", "OBJECT_ID": "2010-035A", "EPOCH": "2025-12-26T13:57:58.395168", "MEAN_MOTION": 14.78748016, "ECCENTRICITY": 0.00125132, "INCLINATION": 97.7831, "RA_OF_ASC_NODE": 49.1608, "ARG_OF_PERICENTER": 35.6504, "MEAN_ANOMALY": 324.5541, "EPHEMERIS_TYPE": 0, "CLASSIFICATION_TYPE": "U", "NORAD_CAT_ID": 36795, "ELEMENT_SET_NO": 999, "REV_AT_EPOCH": 83434, "BSTAR": 0.00021150718, "MEAN_MOTION_DOT": 1.505e-05, "MEAN_MOTION_DDOT": 0}, "tle": {"line1": "1 36795U 10035A   25360.58192587  .00001505  00000+0  21151-3 0  9993", "line2": "2 36795  97.7831  49.1608 0012513  35.6504 324.5541 14.78748016834342"}}, "geometry": {"type": "Point", "coordinates": [47.88389558916172, 11.12162033417933]}}, {"type": "Feature", "properties": {"norad_id": 36834, "name": "YAOGAN-10", "group": "resource", "lat": 30.595599950610413, "lon": 15.851159789973904, "alt_km": 612.4213530463594, "timestamp": "2025-12-26T20:30:45.590597+00:00", "meta": {"OBJECT_NAME": "YAOGAN-10", "OBJECT_ID": "2010-038A", "EPOCH": "2025-12-26T15:56:36.013344", "MEAN_MOTION": 14.84657645, "ECCENTRICITY": 0.00013362, "INCLINATION": 97.9135, "RA_OF_ASC_NODE": 20.3799, "ARG_OF_PERICENTER": 78.1006, "MEAN_ANOMALY": 15.9704, "EPHEMERIS_TYPE": 0, "CLASSIFICATION_TYPE": "U", "NORAD_CAT_ID": 36834, "ELEMENT_SET_NO": 999, "REV_AT_EPOCH": 83160, "BSTAR": 7.9490482e-05, "MEAN_MOTION_DOT": 6.18e-06, "MEAN_MOTION_DDOT": 0}, "tle": {"line1": "1 36834U 10038A   25360.66430571  .00000618  00000+0  79490-4 0  9991", "line2": "2 36834  97.9135  20.3799 0001336  78.1006  15.9704 14.84657645831609"}}, "geometry": {"type": "Point", "coordinates": [15.851159789973904, 30.595599950610413]}}]}